{
  "type": "FeatureCollection",
  "name": "reef_polygons_demo",
  "crs": {"type": "name", "properties": {"name": "EPSG:4326"}},
  "features": [
    {"type":"Feature","properties":{"site_id":"R-001","reef_type":"artificial"},"geometry":{"type":"Polygon","coordinates":[[[-96.98,27.91],[-96.95,27.91],[-96.95,27.88],[-96.98,27.88],[-96.98,27.91]]]}},
    {"type":"Feature","properties":{"site_id":"R-002","reef_type":"natural"},"geometry":{"type":"Polygon","coordinates":[[[-96.94,27.925],[-96.91,27.925],[-96.91,27.895],[-96.94,27.895],[-96.94,27.925]]]}},
    {"type":"Feature","properties":{"site_id":"R-003","reef_type":"artificial"},"geometry":{"type":"Polygon","coordinates":[[[-97.25,27.65],[-97.22,27.65],[-97.22,27.62],[-97.25,27.62],[-97.25,27.65]]]}},
    {"type":"Feature","properties":{"site_id":"R-004","reef_type":"natural"},"geometry":{"type":"Polygon","coordinates":[[[-97.32,27.675],[-97.29,27.675],[-97.29,27.645],[-97.32,27.645],[-97.32,27.675]]]}},
    {"type":"Feature","properties":{"site_id":"R-005","reef_type":"artificial"},"geometry":{"type":"Polygon","coordinates":[[[-97.14,27.81],[-97.10,27.81],[-97.10,27.77],[-97.14,27.77],[-97.14,27.81]]]}},
    {"type":"Feature","properties":{"site_id":"R-006","reef_type":"natural"},"geometry":{"type":"Polygon","coordinates":[[[-97.08,27.84],[-97.04,27.84],[-97.04,27.80],[-97.08,27.80],[-97.08,27.84]]]}},
    {"type":"Feature","properties":{"site_id":"R-007","reef_type":"artificial"},"geometry":{"type":"Polygon","coordinates":[[[-95.97,28.59],[-95.93,28.59],[-95.93,28.55],[-95.97,28.55],[-95.97,28.59]]]}},
    {"type":"Feature","properties":{"site_id":"R-008","reef_type":"natural"},"geometry":{"type":"Polygon","coordinates":[[[-96.04,28.56],[-96.00,28.56],[-96.00,28.52],[-96.04,28.52],[-96.04,28.56]]]}},
    {"type":"Feature","properties":{"site_id":"R-009","reef_type":"artificial"},"geometry":{"type":"Polygon","coordinates":[[[-96.92,28.15],[-96.89,28.15],[-96.89,28.12],[-96.92,28.12],[-96.92,28.15]]]}},
    {"type":"Feature","properties":{"site_id":"R-010","reef_type":"natural"},"geometry":{"type":"Polygon","coordinates":[[[-96.99,28.19],[-96.96,28.19],[-96.96,28.16],[-96.99,28.16],[-96.99,28.19]]]}},
    {"type":"Feature","properties":{"site_id":"R-011","reef_type":"artificial"},"geometry":{"type":"Polygon","coordinates":[[[-97.49,27.79],[-97.45,27.79],[-97.45,27.75],[-97.49,27.75],[-97.49,27.79]]]}},
    {"type":"Feature","properties":{"site_id":"R-012","reef_type":"natural"},"geometry":{"type":"Polygon","coordinates":[[[-97.46,27.80],[-97.43,27.80],[-97.43,27.77],[-97.46,27.77],[-97.46,27.80]]]}}
  ]
}
